#aV2013  6 28  0  0  0.00000000     288 DD+AD WGS84 FIT  NGA
## 1746 432000.00000000   300.00000000 56471 0.0000000000000
+   31     1  2  3  4  5  6  7  8  9 10 11 12 13 14 15 16 17
+         18 19 20 21 22 23 24 25 26 27 28 29 31 32  0  0  0
+          0  0  0  0  0  0  0  0  0  0  0  0  0  0  0  0  0
+          0  0  0  0  0  0  0  0  0  0  0  0  0  0  0  0  0
+          0  0  0  0  0  0  0  0  0  0  0  0  0  0  0  0  0
++         2  2  2  2  2  2  2  2  2  2  2  2  2  2  2  2  2
++         2  2  2  2  2  2  2  2  2  2  2  2  2  2  2  0  0
++         0  0  0  0  0  0  0  0  0  0  0  0  0  0  0  0  0
++         0  0  0  0  0  0  0  0  0  0  0  0  0  0  0  0  0
++         0  0  0  0  0  0  0  0  0  0  0  0  0  0  0  0  0
%c cc cc ccc ccc cccc cccc cccc cccc ccccc ccccc ccccc ccccc
%c cc cc ccc ccc cccc cccc cccc cccc ccccc ccccc ccccc ccccc
%f  0.0000000  0.000000000  0.00000000000  0.000000000000000
%f  0.0000000  0.000000000  0.00000000000  0.000000000000000
%i    0    0    0    0      0      0      0      0         0
%i    0    0    0    0      0      0      0      0         0
/*      NGA, ST. LOUIS,MO.                                  
/*   EPHEMERIS COMPUTED FROM  1 DAYS OF DATA
/*   EPOCHA SMOOTHER  
/* CCCCCCCCCCCCCCCCCCCCCCCCCCCCCCCCCCCCCCCCCCCCCCCCCCCCCCCCC
*  2013  6 28  7 10  0.00000000                                                 
P  1 -11670.676112  21681.787397  -9852.082377     42.997993                    
V  1 -10638.589333   7091.592608  28349.227423      0.047521                    
P  2  21228.660104 -10472.363974 -11299.895119    439.151743                    
V  2  -7726.744751  13202.140024 -26756.458932      0.018052                    
P  3 -13228.149089   8310.868348  20947.451190    225.765121                    
V  3 -11659.438531 -25393.526439   2857.230427      0.048118                    
P  4  19155.809847     88.227152 -18789.159074    257.685479                    
V  4 -15125.489713  17740.306278 -15296.874251      0.101877                    
P  5  23085.832917  -3546.214029  12753.171882   -397.772905                    
V  5  15083.420178   6437.712707 -25321.574313     -0.006213                    
P  6 -16013.173408   1088.342122  21276.817088    167.673311                    
V  6  -8493.347837 -25494.554744  -4732.939810     -0.172606                    
P  7   2186.237792  17027.869209  20221.989574    230.029784                    
V  7 -19070.317544  17154.359989 -12709.569605      0.041945                    
P  8  11461.562800   9199.457418  22276.937689      7.038639                    
V  8 -21683.266037  17504.336423   3365.598709      0.002289                    
P  9  16592.641503   2134.475732  20091.310558    250.798802                    
V  9 -18018.370570  19710.875147  12360.990784      0.025028                    
P 10  25019.827396   9176.288710  -3009.553661    -85.058723                    
V 10  -4097.596116   1946.211193 -30786.275106     -0.013172                    
P 11 -11985.918534  23539.483771   -239.745014   -395.733070                    
V 11  -4599.343935  -2603.479893  30246.105996     -0.035450                    
P 12   8638.408081 -12543.006803 -21775.219636    141.789005                    
V 12  26269.596788   8186.941892   5917.404212      0.020991                    
P 13   4458.535247  26107.561108    -41.580843    105.248262                    
V 13  -2223.647677    497.414743 -32299.151241     -0.036653                    
P 14 -14274.407911 -15479.470324 -16080.137973    219.929876                    
V 14  -2546.490681 -20607.750337  21675.159977     -0.003474                    
P 15   5928.653974 -20225.613295  15978.505876   -125.226694                    
V 15   8428.285145  18853.430169  20955.236999     -0.016454                    
P 16 -23373.951970   1578.620298  12809.049699   -250.856921                    
V 16 -14971.771182  -6199.964388 -26168.082867      0.004209                    
P 17  14564.961895  16175.823080 -15159.694116      4.507514                    
V 17   2697.585999  19436.622844  22768.527215     -0.038347                    
P 18 -15020.033291 -15985.635244  15630.504103    260.860223                    
V 18  19047.895630   2513.366990  21095.527223      0.018158                    
P 19  -9954.384312  16222.374949  18244.079639   -384.540231                    
V 19  -5910.864933 -22830.685876  17403.566008     -0.029703                    
P 20  -2776.532242  15772.156843 -21361.880922    106.151087                    
V 20 -26335.370089  -5282.307331   -409.808686      0.022159                    
P 21  -7093.248888 -15178.622487  21100.584122   -305.496413                    
V 21  18702.778549 -17653.013611  -7117.948970     -0.020057                    
P 22 -23560.961135 -10917.964400   6138.457353    173.377077                    
V 22   8225.247494  -1611.820236  29526.058397      0.016002                    
P 23   -533.622661  24510.360803  -9612.986358     72.035008                    
V 23  -6093.096636 -11269.757153 -28571.878473     -0.035480                    
P 24  14383.681459 -21370.593533  -6392.166646     -9.012487                    
V 24   7641.863544  -3900.124544  30333.372768     -0.006612                    
P 25  -5852.534561 -15893.727622 -20543.455752    115.077267                    
V 25  25304.274486   5538.434516 -11428.597841      0.048569                    
P 26  13417.218639  -6419.611248  21334.545107     73.135923                    
V 26   5597.628609  28068.056804   5097.470263      0.163850                    
P 27 -14192.652166   5639.654450  21724.752781     -5.004956                    
V 27  -7640.024014 -26521.043178   1900.020703     -0.034025                    
P 28  20953.194684  13600.527997   9857.490299    271.122146                    
V 28 -11534.164266  -1999.764539  28832.737531      0.032645                    
P 29  -4789.116984 -26101.057940  -1560.059201    448.852751                    
V 29   2976.511805   1414.578179 -31773.333677      0.033006                    
P 31 -18877.895543    922.243855 -18607.609322    319.103256                    
V 31  16370.782685 -17347.628781 -17040.694086      0.011494                    
P 32 -12543.636693  11068.758701 -20384.125815   -558.963595                    
V 32 -24417.382787  -9968.380621  10070.290783      0.002560                    
EOF
